IRIDIUM 155             
1 43573U 18061E   24209.10044616  .00000190  00000+0  60847-4 0  9995
2 43573  86.3996 345.0742 0002391  88.3543 271.7927 14.34217669314440
IRIDIUM 154             
1 43574U 18061F   24209.29072282  .00000098  00000+0  28030-4 0  9991
2 43574  86.4002 345.0943 0002124  99.3768 260.7668 14.34216498314526
IRIDIUM 163             
1 43575U 18061G   24209.13215859  .00000172  00000+0  54270-4 0  9992
2 43575  86.4002 345.0976 0002173  95.6683 264.4761 14.34218266314476
IRIDIUM 156             
1 43576U 18061H   24209.10678821  .00000217  00000+0  70322-4 0  9998
2 43576  86.4000 345.1146 0002128  89.1789 270.9651 14.34217630314463
IRIDIUM 164             
1 43577U 18061J   24209.08775966  .00000276  00000+0  91406-4 0  9995
2 43577  86.4000 345.1520 0001871  94.3264 265.8146 14.34217989314504
IRIDIUM 159             
1 43578U 18061K   24209.12581385  .00000209  00000+0  67497-4 0  9990
2 43578  86.4002 345.0874 0002019  98.8702 261.2722 14.34217876314470
IRIDIUM 180             
1 43922U 19002A   24209.26484885  .00000346  00000+0  11649-3 0  9990
2 43922  86.3958 281.9069 0002287  97.8698 262.2757 14.34217181290107
IRIDIUM 176             
1 43923U 19002B   24209.08287154  .00000056  00000+0  49305-5 0  9991
2 43923  86.6085 282.0019 0002229  96.9201 263.2270 14.72236519297718
IRIDIUM 168             
1 43924U 19002C   24209.25850796  .00000057  00000+0  13152-4 0  9990
2 43924  86.3958 281.9671 0002192  96.4056 263.7390 14.34212567290085
IRIDIUM 173             
1 43925U 19002D   24209.24582137  .00000165  00000+0  51883-4 0  9994
2 43925  86.3955 281.8895 0002174  95.4450 264.6994 14.34218098290060
IRIDIUM 169             
1 43926U 19002E   24209.32855784  .00000591  00000+0  18671-3 0  9995
2 43926  86.4245 313.4864 0004194  98.0627 262.1047 14.38609145291043
IRIDIUM 172             
1 43927U 19002F   24209.23947925  .00000190  00000+0  60748-4 0  9993
2 43927  86.3954 281.8980 0002217  91.8605 268.2844 14.34217529290079
IRIDIUM 175             
1 43928U 19002G   24209.21318130  .00001274  00000+0  19815-3 0  9994
2 43928  86.1482 252.8248 0002655  94.8198 265.3322 14.72248758297723
IRIDIUM 171             
1 43929U 19002H   24209.49952487  .00000142  00000+0  43666-4 0  9999
2 43929  86.3963 282.0194 0002100  91.2880 268.8557 14.34217986290109
IRIDIUM 170             
1 43930U 19002J   24209.22498281  .00001520  00000+0  23706-3 0  9992
2 43930  86.6085 281.9474 0002316  93.0715 267.0767 14.72254449297742
IRIDIUM 167             
1 43931U 19002K   24209.28387642  .00000154  00000+0  48062-4 0  9992
2 43931  86.3955 281.8959 0002288  91.3073 268.8385 14.34218394290070
IRIDIUM 181             
1 56726U 23068S   24209.24138485  .00000805  00000+0  23199-3 0  9996
2 56726  86.8667 337.5942 0002243  88.9036 271.2422 14.43579459 62916
IRIDIUM 177             
1 56727U 23068T   24209.24538166  .00002560  00000+0  33350-3 0  9997
2 56727  86.1973 296.3421 0002426  91.6642 268.4856 14.80226619 64303
IRIDIUM 174             
1 56728U 23068U   24209.37515204  .00002359  00000+0  30692-3 0  9992
2 56728  86.1982 296.3880 0002559  91.7304 268.4210 14.80227506 64328
IRIDIUM 178             
1 56729U 23068V   24209.36973597  .00002420  00000+0  31503-3 0  9996
2 56729  86.5800 315.7611 0002732  91.4013 268.7521 14.80229716 64320
IRIDIUM 179             
1 56730U 23068W   24208.68828171  .00000936  00000+0  11971-3 0  9996
2 56730  86.6815 320.6840 0002171  94.7910 265.3559 14.80224221 64226
